[{"OBJECT_NAME":"ONEWEB-0582","OBJECT_ID":"2022-166H","EPOCH":"2026-03-09T23:15:17.554752","MEAN_MOTION":13.21825835,"ECCENTRICITY":0.00011596,"INCLINATION":87.9163,"RA_OF_ASC_NODE":263.7603,"ARG_OF_PERICENTER":87.0279,"MEAN_ANOMALY":273.0988,"EPHEMERIS_TYPE":0,"CLASSIFICATION_TYPE":"U","NORAD_CAT_ID":54649,"ELEMENT_SET_NO":999,"REV_AT_EPOCH":15841,"BSTAR":6.31832e-7,"MEAN_MOTION_DOT":1.3e-7,"MEAN_MOTION_DDOT":0},{"OBJECT_NAME":"COSMOS 272","OBJECT_ID":"1969-024A","EPOCH":"2026-03-09T09:10:59.785824","MEAN_MOTION":13.17947174,"ECCENTRICITY":0.00200905,"INCLINATION":73.9906,"RA_OF_ASC_NODE":46.7794,"ARG_OF_PERICENTER":261.2276,"MEAN_ANOMALY":209.2019,"EPHEMERIS_TYPE":0,"CLASSIFICATION_TYPE":"U","NORAD_CAT_ID":3818,"ELEMENT_SET_NO":999,"REV_AT_EPOCH":74070,"BSTAR":-0.00037353481,"MEAN_MOTION_DOT":-1.65e-6,"MEAN_MOTION_DDOT":0}]
